{"type": "FeatureCollection", "features": [ {"type": "Feature", "properties": {"norad_id": 40701, "name": "GAOFEN-8", "group": "resource", "lat": -1.3606472860733156, "lon": 178.26102525524692, "alt_km": 453.0838574785057, "timestamp": "2025-12-25T07:41:09.380184+00:00", "meta": {"OBJECT_NAME": "GAOFEN-8", "OBJECT_ID": "2015-030A", "EPOCH": "2025-12-24T23:53:22.288704", "MEAN_MOTION": 15.3897896, "ECCENTRICITY": 0.00114011, "INCLINATION": 97.6897, "RA_OF_ASC_NODE": 177.7364, "ARG_OF_PERICENTER": 95.323, "MEAN_ANOMALY": 264.9316, "EPHEMERIS_TYPE": 0, "CLASSIFICATION_TYPE": "U", "NORAD_CAT_ID": 40701, "ELEMENT_SET_NO": 999, "REV_AT_EPOCH": 58459, "BSTAR": 0.00071122179, "MEAN_MOTION_DOT": 0.00027481, "MEAN_MOTION_DDOT": 0}, "tle": {"line1": "1 40701U 15030A   25358.99539686  .00027481  00000+0  71122-3 0  9996", "line2": "2 40701  97.6897 177.7364 0011401  95.3230 264.9316 15.38978960584592"}}, "geometry": {"type": "Point", "coordinates": [178.26102525524692, -1.3606472860733156]}}, {"type": "Feature", "properties": {"norad_id": 40718, "name": "CARBONITE 1 (CBNT-1)", "group": "resource", "lat": -78.43149721414746, "lon": -139.21153075542387, "alt_km": 635.7956230127666, "timestamp": "2025-12-25T07:41:09.380194+00:00", "meta": {"OBJECT_NAME": "CARBONITE 1 (CBNT-1)", "OBJECT_ID": "2015-032D", "EPOCH": "2025-12-24T23:57:19.380672", "MEAN_MOTION": 14.82804268, "ECCENTRICITY": 0.00153219, "INCLINATION": 97.6402, "RA_OF_ASC_NODE": 179.5031, "ARG_OF_PERICENTER": 141.7236, "MEAN_ANOMALY": 218.5069, "EPHEMERIS_TYPE": 0, "CLASSIFICATION_TYPE": "U", "NORAD_CAT_ID": 40718, "ELEMENT_SET_NO": 999, "REV_AT_EPOCH": 56352, "BSTAR": 0.00069397718, "MEAN_MOTION_DOT": 5.576e-05, "MEAN_MOTION_DDOT": 0}, "tle": {"line1": "1 40718U 15032D   25358.99814098  .00005576  00000+0  69398-3 0  9992", "line2": "2 40718  97.6402 179.5031 0015321 141.7236 218.5069 14.82804268563527"}}, "geometry": {"type": "Point", "coordinates": [-139.21153075542387, -78.43149721414746]}}, {"type": "Feature", "properties": {"norad_id": 40878, "name": "YAOGAN-27", "group": "resource", "lat": -1.2475784718325544, "lon": -11.406521481486264, "alt_km": 1204.0223939061589, "timestamp": "2025-12-25T07:41:09.380205+00:00", "meta": {"OBJECT_NAME": "YAOGAN-27", "OBJECT_ID": "2015-040A", "EPOCH": "2025-12-24T22:34:11.328096", "MEAN_MOTION": 13.16062434, "ECCENTRICITY": 0.00075645, "INCLINATION": 100.1019, "RA_OF_ASC_NODE": 348.0084, "ARG_OF_PERICENTER": 256.1654, "MEAN_ANOMALY": 103.8618, "EPHEMERIS_TYPE": 0, "CLASSIFICATION_TYPE": "U", "NORAD_CAT_ID": 40878, "ELEMENT_SET_NO": 999, "REV_AT_EPOCH": 49474, "BSTAR": 0.00080024117, "MEAN_MOTION_DOT": 2.62e-06, "MEAN_MOTION_DDOT": 0}, "tle": {"line1": "1 40878U 15040A   25358.94040889  .00000262  00000+0  80024-3 0  9998", "line2": "2 40878 100.1019 348.0084 0007564 256.1654 103.8618 13.16062434494744"}}, "geometry": {"type": "Point", "coordinates": [-11.406521481486264, -1.2475784718325544]}}, {"type": "Feature", "properties": {"norad_id": 40894, "name": "GAOFEN-9 01", "group": "resource", "lat": -4.287756782072377, "lon": -142.84599321183708, "alt_km": 644.0169649381887, "timestamp": "2025-12-25T07:41:09.380215+00:00", "meta": {"OBJECT_NAME": "GAOFEN-9 01", "OBJECT_ID": "2015-047A", "EPOCH": "2025-12-24T22:45:27.120384", "MEAN_MOTION": 14.82451289, "ECCENTRICITY": 0.00273949, "INCLINATION": 97.6527, "RA_OF_ASC_NODE": 37.3757, "ARG_OF_PERICENTER": 354.7993, "MEAN_ANOMALY": 5.2932, "EPHEMERIS_TYPE": 0, "CLASSIFICATION_TYPE": "U", "NORAD_CAT_ID": 40894, "ELEMENT_SET_NO": 999, "REV_AT_EPOCH": 55437, "BSTAR": 0.00014720477, "MEAN_MOTION_DOT": 1.137e-05, "MEAN_MOTION_DDOT": 0}, "tle": {"line1": "1 40894U 15047A   25358.94823056  .00001137  00000+0  14720-3 0  9990", "line2": "2 40894  97.6527  37.3757 0027394 354.7993   5.2932 14.82451289554379"}}, "geometry": {"type": "Point", "coordinates": [-142.84599321183708, -4.287756782072377]}}, {"type": "Feature", "properties": {"norad_id": 41026, "name": "YAOGAN-28", "group": "resource", "lat": 73.59261688183759, "lon": 111.02163314097614, "alt_km": 476.564454788946, "timestamp": "2025-12-25T07:41:09.380225+00:00", "meta": {"OBJECT_NAME": "YAOGAN-28", "OBJECT_ID": "2015-064A", "EPOCH": "2025-12-24T23:28:52.679136", "MEAN_MOTION": 15.24543703, "ECCENTRICITY": 0.00126698, "INCLINATION": 97.2817, "RA_OF_ASC_NODE": 136.427, "ARG_OF_PERICENTER": 87.2679, "MEAN_ANOMALY": 273.0009, "EPHEMERIS_TYPE": 0, "CLASSIFICATION_TYPE": "U", "NORAD_CAT_ID": 41026, "ELEMENT_SET_NO": 999, "REV_AT_EPOCH": 56411, "BSTAR": 0.00033899837, "MEAN_MOTION_DOT": 8.295e-05, "MEAN_MOTION_DDOT": 0}, "tle": {"line1": "1 41026U 15064A   25358.97838749  .00008295  00000+0  33900-3 0  9998", "line2": "2 41026  97.2817 136.4270 0012669  87.2679 273.0009 15.24543703564117"}}, "geometry": {"type": "Point", "coordinates": [111.02163314097614, 73.59261688183759]}}, {"type": "Feature", "properties": {"norad_id": 41038, "name": "YAOGAN-29", "group": "resource", "lat": 81.46763732638654, "lon": -87.44642281098557, "alt_km": 612.54748167869, "timestamp": "2025-12-25T07:41:09.380235+00:00", "meta": {"OBJECT_NAME": "YAOGAN-29", "OBJECT_ID": "2015-069A", "EPOCH": "2025-12-24T23:10:16.843872", "MEAN_MOTION": 14.82895799, "ECCENTRICITY": 8.962e-05, "INCLINATION": 98.0205, "RA_OF_ASC_NODE": 22.1752, "ARG_OF_PERICENTER": 165.5165, "MEAN_ANOMALY": 194.6074, "EPHEMERIS_TYPE": 0, "CLASSIFICATION_TYPE": "U", "NORAD_CAT_ID": 41038, "ELEMENT_SET_NO": 999, "REV_AT_EPOCH": 54480, "BSTAR": 9.7563493e-05, "MEAN_MOTION_DOT": 7.37e-06, "MEAN_MOTION_DDOT": 0}, "tle": {"line1": "1 41038U 15069A   25358.96547273  .00000737  00000+0  97563-4 0  9993", "line2": "2 41038  98.0205  22.1752 0000896 165.5165 194.6074 14.82895799544807"}}, "geometry": {"type": "Point", "coordinates": [-87.44642281098557, 81.46763732638654]}}, {"type": "Feature", "properties": {"norad_id": 41167, "name": "KENT RIDGE 1", "group": "resource", "lat": 7.31713150082754, "lon": -90.91641614645671, "alt_km": 502.3075667463636, "timestamp": "2025-12-25T07:41:09.380245+00:00", "meta": {"OBJECT_NAME": "KENT RIDGE 1", "OBJECT_ID": "2015-077B", "EPOCH": "2025-12-24T23:09:45.505728", "MEAN_MOTION": 15.21725755, "ECCENTRICITY": 0.00085477, "INCLINATION": 14.9791, "RA_OF_ASC_NODE": 120.4179, "ARG_OF_PERICENTER": 303.3992, "MEAN_ANOMALY": 56.5512, "EPHEMERIS_TYPE": 0, "CLASSIFICATION_TYPE": "U", "NORAD_CAT_ID": 41167, "ELEMENT_SET_NO": 999, "REV_AT_EPOCH": 55450, "BSTAR": 0.00017266312, "MEAN_MOTION_DOT": 4.787e-05, "MEAN_MOTION_DDOT": 0}, "tle": {"line1": "1 41167U 15077B   25358.96511002  .00004787  00000+0  17266-3 0  9996", "line2": "2 41167  14.9791 120.4179 0008547 303.3992  56.5512 15.21725755554502"}}, "geometry": {"type": "Point", "coordinates": [-90.91641614645671, 7.31713150082754]}}, {"type": "Feature", "properties": {"norad_id": 41194, "name": "GAOFEN-4", "group": "resource", "lat": -0.17721716111896835, "lon": -44.90347385009876, "alt_km": 35795.68642013969, "timestamp": "2025-12-25T07:41:09.380257+00:00", "meta": {"OBJECT_NAME": "GAOFEN-4", "OBJECT_ID": "2015-083A", "EPOCH": "2025-12-24T22:09:41.500800", "MEAN_MOTION": 1.00270212, "ECCENTRICITY": 0.00028295, "INCLINATION": 0.1998, "RA_OF_ASC_NODE": 81.8693, "ARG_OF_PERICENTER": 93.4285, "MEAN_ANOMALY": 356.5295, "EPHEMERIS_TYPE": 0, "CLASSIFICATION_TYPE": "U", "NORAD_CAT_ID": 41194, "ELEMENT_SET_NO": 999, "REV_AT_EPOCH": 3678, "BSTAR": 0, "MEAN_MOTION_DOT": -3.14e-06, "MEAN_MOTION_DDOT": 0}, "tle": {"line1": "1 41194U 15083A   25358.92339700 -.00000314  00000+0  00000+0 0  9999", "line2": "2 41194   0.1998  81.8693 0002829  93.4285 356.5295  1.00270212 36789"}}, "geometry": {"type": "Point", "coordinates": [-44.90347385009876, -0.17721716111896835]}}, {"type": "Feature", "properties": {"norad_id": 41240, "name": "JASON-3", "group": "resource", "lat": -50.71945112894953, "lon": 98.44533703999022, "alt_km": 1312.1372279770285, "timestamp": "2025-12-25T07:41:09.380268+00:00", "meta": {"OBJECT_NAME": "JASON-3", "OBJECT_ID": "2016-002A", "EPOCH": "2025-12-24T20:48:04.656384", "MEAN_MOTION": 12.87627069, "ECCENTRICITY": 0.00072915, "INCLINATION": 66.0404, "RA_OF_ASC_NODE": 132.3284, "ARG_OF_PERICENTER": 271.4999, "MEAN_ANOMALY": 88.5185, "EPHEMERIS_TYPE": 0, "CLASSIFICATION_TYPE": "U", "NORAD_CAT_ID": 41240, "ELEMENT_SET_NO": 999, "REV_AT_EPOCH": 46480, "BSTAR": 0.00011652902, "MEAN_MOTION_DOT": -3.3e-07, "MEAN_MOTION_DDOT": 0}, "tle": {"line1": "1 41240U 16002A   25358.86672056 -.00000033  00000+0  11653-3 0  9998", "line2": "2 41240  66.0404 132.3284 0007291 271.4999  88.5185 12.87627069464801"}}, "geometry": {"type": "Point", "coordinates": [98.44533703999022, -50.71945112894953]}}, {"type": "Feature", "properties": {"norad_id": 41335, "name": "SENTINEL-3A", "group": "resource", "lat": 46.27025023961302, "lon": -106.70834447037315, "alt_km": 798.0747921314987, "timestamp": "2025-12-25T07:41:09.380279+00:00", "meta": {"OBJECT_NAME": "SENTINEL-3A", "OBJECT_ID": "2016-011A", "EPOCH": "2025-12-24T20:57:58.335840", "MEAN_MOTION": 14.26735262, "ECCENTRICITY": 8.91e-05, "INCLINATION": 98.6298, "RA_OF_ASC_NODE": 63.7168, "ARG_OF_PERICENTER": 97.2198, "MEAN_ANOMALY": 262.9084, "EPHEMERIS_TYPE": 0, "CLASSIFICATION_TYPE": "U", "NORAD_CAT_ID": 41335, "ELEMENT_SET_NO": 999, "REV_AT_EPOCH": 51320, "BSTAR": 7.5173009e-05, "MEAN_MOTION_DOT": 1.38e-06, "MEAN_MOTION_DDOT": 0}, "tle": {"line1": "1 41335U 16011A   25358.87359185  .00000138  00000+0  75173-4 0  9992", "line2": "2 41335  98.6298  63.7168 0000891  97.2198 262.9084 14.26735262513205"}}, "geometry": {"type": "Point", "coordinates": [-106.70834447037315, 46.27025023961302]}}]}